NORAD_CAT_ID,OBJECT_NAME,OBJECT_TYPE,EPOCH,MEAN_MOTION,ECCENTRICITY,INCLINATION,RA_OF_ASC_NODE,ARG_OF_PERICENTER,MEAN_ANOMALY,BSTAR,MEAN_MOTION_DOT,MEAN_MOTION_DDOT,TLE_LINE0,TLE_LINE1,TLE_LINE2,SEMIMAJOR_AXIS,PERIOD,APOGEE,PERIGEE,DECAYED
52620.0,STARLINK-3975,PAYLOAD,2022-08-28 14:00:01,15.08826628,0.0001485,53.2163,311.1441,55.9306,355.6649,0.0017977,0.00028428,0.0,0 STARLINK-3975,1 52620U 22052Y   22240.58334491  .00028428  00000-0  17977-2 0  9990,2 52620  53.2163 311.1441 0001485  55.9306 355.6649 15.08826628  1306,6917.920999999999,95.438,540.814,538.759,0.0
52620.0,STARLINK-3975,PAYLOAD,2022-08-28 20:00:01,15.08860516,0.0001415,53.2157,310.0209,56.2738,274.0077,-0.0021636,-0.00034576,0.0,0 STARLINK-3975,1 52620U 22052Y   22240.83334491 -.00034576  00000-0 -21636-2 0  9998,2 52620  53.2157 310.0209 0001415  56.2738 274.0077 15.08860516 16584,6917.818,95.436,540.6619999999998,538.7040000000002,0.0
52620.0,STARLINK-3975,PAYLOAD,2022-08-28 22:00:00,15.08849872,0.0001375999999999,53.2159,309.6463,59.8272,3.3589,-0.00096592,-0.00015632,0.0,0 STARLINK-3975,1 52620U 22052Y   22240.91667824 -.00015632  00000-0 -96592-3 0  9992,2 52620  53.2159 309.6463 0001376  59.8272   3.3589 15.08849872  1307,6917.85,95.437,540.6669999999998,538.763,0.0
52620.0,STARLINK-3975,PAYLOAD,2022-08-29 12:00:00,15.0885112,0.0001523,53.2155,307.0288,56.8922,296.6027,-0.00033991,-5.695e-05,0.0,0 STARLINK-3975,1 52620U 22052Y   22241.50001157 -.00005695  00000-0 -33991-3 0  9991,2 52620  53.2155 307.0288 0001523  56.8922 296.6027 15.08851120 16683,6917.846,95.437,540.765,538.658,0.0
52620.0,STARLINK-3975,PAYLOAD,2022-08-29 14:00:01,15.08841474,0.0001529,53.2155,306.6549,55.3141,31.086,0.00082917,0.00012933,0.0,0 STARLINK-3975,1 52620U 22052Y   22241.58334491  .00012933  00000-0  82917-3 0  9992,2 52620  53.2155 306.6549 0001529  55.3141  31.0860 15.08841474  1301,6917.876,95.437,540.799,538.683,0.0
52620.0,STARLINK-3975,PAYLOAD,2022-08-29 22:00:00,15.08840604,0.0001476,53.2153,305.1569,60.919,37.09,-0.0013437999999999,-0.00021611,0.0,0 STARLINK-3975,1 52620U 22052Y   22241.91667824 -.00021611  00000-0 -13438-2 0  9994,2 52620  53.2153 305.1569 0001476  60.9190  37.0900 15.08840604  1307,6917.879,95.438,540.765,538.722,0.0
52620.0,STARLINK-3975,PAYLOAD,2022-08-30 14:00:01,15.08815413,0.0001647,53.2152,302.1655,55.6412,65.5503,0.0027272,0.00043354,0.0,0 STARLINK-3975,1 52620U 22052Y   22242.58334491  .00043354  00000-0  27272-2 0  9996,2 52620  53.2152 302.1655 0001647  55.6412  65.5503 15.08815413  1302,6917.956,95.439,540.96,538.681,0.0
52620.0,STARLINK-3975,PAYLOAD,2022-08-30 20:00:01,15.0885591,0.0001595,53.215,301.0418,57.3254,342.5486,-0.0019986,-0.00031969,0.0,0 STARLINK-3975,1 52620U 22052Y   22242.83334491 -.00031969  00000-0 -19986-2 0  9998,2 52620  53.2150 301.0418 0001595  57.3254 342.5486 15.08855910 16883,6917.831999999999,95.437,540.8,538.5930000000002,0.0
52620.0,STARLINK-3975,PAYLOAD,2022-08-30 22:00:00,15.08846129,0.0001551,53.2161,300.6652,58.5351,74.2463,-0.00069848,-0.00011389,0.0,0 STARLINK-3975,1 52620U 22052Y   22242.91667824 -.00011389  00000-0 -69848-3 0  9993,2 52620  53.2161 300.6652 0001551  58.5351  74.2463 15.08846129  1300,6917.861999999999,95.437,540.8,538.654,0.0
52620.0,STARLINK-3975,PAYLOAD,2022-08-31 12:00:00,15.08822021,0.0001645,53.2152,298.0498,54.2547,8.8327,9.5822e-05,1.237e-05,0.0,0 STARLINK-3975,1 52620U 22052Y   22243.50001157  .00001237  00000-0  95822-4 0  9991,2 52620  53.2152 298.0498 0001645  54.2547   8.8327 15.08822021 16989,6917.935,95.439,540.938,538.6619999999998,0.0
52620.0,STARLINK-3975,PAYLOAD,2022-08-31 14:00:01,15.08800281,0.0001624,53.2153,297.6758,51.4384,104.5498,0.0030873,0.00049136,0.0,0 STARLINK-3975,1 52620U 22052Y   22243.58334491  .00049136  00000-0  30873-2 0  9992,2 52620  53.2153 297.6758 0001624  51.4384 104.5498 15.08800281  1306,6918.002,95.44,540.99,538.743,0.0
52620.0,STARLINK-3975,PAYLOAD,2022-08-31 22:00:00,15.08823697,0.0001486,53.2154,296.1776,55.9721,111.5905,0.00058791,9.077e-05,0.0,0 STARLINK-3975,1 52620U 22052Y   22243.91667824  .00009077  00000-0  58791-3 0  9998,2 52620  53.2154 296.1776 0001486  55.9721 111.5905 15.08823697  1308,6917.93,95.439,540.823,538.7669999999998,0.0
52620.0,STARLINK-3975,PAYLOAD,2022-09-01 14:00:01,15.08813794,0.0001694,53.2156,293.1862,50.4223,140.38,0.0031824,0.00050688,0.0,0 STARLINK-3975,1 52620U 22052Y   22244.58335648  .00050688  00000-0  31824-2 0  9999,2 52620  53.2156 293.1862 0001694  50.4223 140.3800 15.08813794  1302,6917.96,95.439,540.997,538.654,0.0
52620.0,STARLINK-3975,PAYLOAD,2022-09-01 20:00:01,15.08854055,0.0001595999999999,53.2158,292.0625,54.4544,55.034,-0.0015107999999999,-0.00024261,0.0,0 STARLINK-3975,1 52620U 22052Y   22244.83335648 -.00024261  00000-0 -15108-2 0  9994,2 52620  53.2158 292.0625 0001596  54.4544  55.0340 15.08854055 17189,6917.837,95.437,540.807,538.5980000000002,0.0
52620.0,STARLINK-3975,PAYLOAD,2022-09-01 22:00:00,15.08833359,0.0001536,53.2159,291.6879,55.5491,146.783,0.0010243,0.00016048,0.0,0 STARLINK-3975,1 52620U 22052Y   22244.91667824  .00016048  00000-0  10243-2 0  9994,2 52620  53.2159 291.6879 0001536  55.5491 146.7830 15.08833359  1306,6917.901,95.438,540.828,538.703,0.0
52620.0,STARLINK-3975,PAYLOAD,2022-09-02 12:00:02,15.08840762,0.0001706,53.2161,289.0707,51.0033,81.6935,0.0004704,7.206e-05,0.0,0 STARLINK-3975,1 52620U 22052Y   22245.50002315  .00007206  00000-0  47040-3 0  9990,2 52620  53.2161 289.0707 0001706  51.0033  81.6935 15.08840762 17285,6917.878000000002,95.438,540.923,538.563,0.0
52620.0,STARLINK-3975,PAYLOAD,2022-09-02 14:00:01,15.08839048,0.0001682,53.2159,288.6967,49.4182,176.1177,0.00069341,0.00010765,0.0,0 STARLINK-3975,1 52620U 22052Y   22245.58334491  .00010765  00000-0  69341-3 0  9993,2 52620  53.2159 288.6967 0001682  49.4182 176.1177 15.08839048  1303,6917.8830000000025,95.438,540.9119999999998,538.585,0.0
52620.0,STARLINK-3975,PAYLOAD,2022-09-02 22:00:01,15.08816923,0.0001456,53.2161,287.1984,52.9036,184.3037,0.0010266,0.00016078,0.0,0 STARLINK-3975,1 52620U 22052Y   22245.91668981  .00016078  00000-0  10266-2 0  9998,2 52620  53.2161 287.1984 0001456  52.9036 184.3037 15.08816923  1308,6917.951,95.439,540.823,538.809,0.0
52620.0,STARLINK-3975,PAYLOAD,2022-09-03 04:00:00,15.08836696,0.0001483,53.2164,286.0762,56.6013,99.2184,-0.00015459,-2.747e-05,0.0,0 STARLINK-3975,1 52620U 22052Y   22246.16667824 -.00002747  00000-0 -15459-3 0  9991,2 52620  53.2164 286.0762 0001483  56.6013  99.2184 15.08836696 17380,6917.89,95.438,540.781,538.73,0.0
52620.0,STARLINK-3975,PAYLOAD,2022-09-03 14:00:01,15.08816669,0.000162,53.2159,284.2074,47.4553,212.8553,0.0026907,0.00042767,0.0,0 STARLINK-3975,1 52620U 22052Y   22246.58334491  .00042767  00000-0  26907-2 0  9991,2 52620  53.2159 284.2074 0001620  47.4553 212.8553 15.08816669  1306,6917.9519999999975,95.439,540.937,538.696,0.0
52620.0,STARLINK-3975,PAYLOAD,2022-09-03 22:00:00,15.08821895,0.0001449,53.216,282.7092,54.1322,217.7716,0.0021646,0.00034313,0.0,0 STARLINK-3975,1 52620U 22052Y   22246.91667824  .00034313  00000-0  21646-2 0  9990,2 52620  53.2160 282.7092 0001449  54.1322 217.7716 15.08821895  1301,6917.936,95.439,540.803,538.798,0.0
52620.0,STARLINK-3975,PAYLOAD,2022-09-04 12:00:00,15.08838719,0.0001673,53.2159,280.0924,49.8242,152.3795,0.00081019,0.00012629,0.0,0 STARLINK-3975,1 52620U 22052Y   22247.50001157  .00012629  00000-0  81019-3 0  9994,2 52620  53.2159 280.0924 0001673  49.8242 152.3795 15.08838719 17586,6917.884,95.438,540.9069999999998,538.592,0.0
52620.0,STARLINK-3975,PAYLOAD,2022-09-04 14:00:01,15.08848193,0.000165,53.2155,279.7182,49.1084,246.056,-0.00055032,-9.038e-05,0.0,0 STARLINK-3975,1 52620U 22052Y   22247.58335648 -.00009038  00000-0 -55032-3 0  9995,2 52620  53.2155 279.7182 0001650  49.1084 246.0560 15.08848193  1306,6917.855,95.437,540.862,538.5790000000002,0.0
52620.0,STARLINK-3975,PAYLOAD,2022-09-04 20:00:01,15.08839856,0.0001576999999999,53.2156,278.5945,55.8274,157.9872,-0.00068088,-0.00011108,0.0,0 STARLINK-3975,1 52620U 22052Y   22247.83334491 -.00011108  00000-0 -68088-3 0  9994,2 52620  53.2156 278.5945 0001577  55.8274 157.9872 15.08839856  1306,6917.880999999999,95.438,540.837,538.655,0.0
52620.0,STARLINK-3975,PAYLOAD,2022-09-05 12:00:00,15.08830824,0.0001730999999999,53.2153,275.6035,51.8663,185.1429,0.0016856999999999,0.00026635,0.0,0 STARLINK-3975,1 52620U 22052Y   22248.50001157  .00026635  00000-0  16857-2 0  9994,2 52620  53.2153 275.6035 0001731  51.8663 185.1429 15.08830824 17743,6917.908,95.438,540.971,538.576,0.0
52620.0,STARLINK-3975,PAYLOAD,2022-09-05 14:00:01,15.08849596,0.000168,53.2149,275.2292,50.3787,279.5246,-0.00075785,-0.00012332,0.0,0 STARLINK-3975,1 52620U 22052Y   22248.58334491 -.00012332  00000-0 -75785-3 0  9999,2 52620  53.2149 275.2292 0001680  50.3787 279.5246 15.08849596  1309,6917.851,95.437,540.878,538.554,0.0
52620.0,STARLINK-3975,PAYLOAD,2022-09-05 20:00:01,15.08829857,0.0001544,53.215,274.1054,54.9702,193.6406,-0.00059112,-9.681e-05,0.0,0 STARLINK-3975,1 52620U 22052Y   22248.83334491 -.00009681  00000-0 -59112-3 0  9996,2 52620  53.2150 274.1054 0001544  54.9702 193.6406 15.08829857 17793,6917.911,95.438,540.845,538.7080000000002,0.0
52620.0,STARLINK-3975,PAYLOAD,2022-09-05 22:00:00,15.08800821,0.0001496,53.2148,273.7311,56.7128,284.803,0.0030647,0.00048772,0.0,0 STARLINK-3975,1 52620U 22052Y   22248.91667824  .00048772  00000-0  30647-2 0  9997,2 52620  53.2148 273.7311 0001496  56.7128 284.8030 15.08800821  1305,6918.0,95.44,540.9,538.83,0.0
52620.0,STARLINK-3975,PAYLOAD,2022-09-06 12:00:00,15.08810022,0.0001717,53.2146,271.1145,49.9383,221.8402,0.0030146,0.00047977,0.0,0 STARLINK-3975,1 52620U 22052Y   22249.50001157  .00047977  00000-0  30146-2 0  9994,2 52620  53.2146 271.1145 0001717  49.9383 221.8402 15.08810022 17892,6917.972,95.439,541.025,538.649,0.0
